name,category,address,description,by_appointment,email,latitude,longitude,on_campus,Cal1Card_Accepted,EatWell_Accepted,Average_Meal,sunday_hours,monday_hours,tuesday_hours,wednesday_hours,thursday_hours,friday_hours,saturday_hours,phone,picture
Cal Student Central,Campus Resource,"Barrow Ln, Berkeley, CA 94704",Sproul Hall Office at 120A,No,sishelp@berkeley.edu,37.869622,-122.25876,Yes,,,,Closed,"9am-12pm,1pm-4pm","9am-12pm,1pm-4pm","9am-12pm,1pm-4pm","9am-12pm,1pm-4pm","9am-12pm,1pm-4pm",Closed,510-664-9181,
Financial Aid & Scholarships Office,Campus Resource,"Barrow Ln, Berkeley, CA 94704",201 Sproul Hall #1960,No,Â studentcentral.berkeley.edu/open-case,37.869622,-122.25876,Yes,,,,Closed,"9am-12pm,1pm-4pm","9am-12pm,1pm-4pm","9am-12pm,1pm-4pm","9am-12pm,1pm-4pm","9am-12pm,1pm-4pm",Closed,855 895-3690,
Food Pantry,Campus Resource,"2495 Bancroft Way, Berkeley, CA 94720",Room 68 MLK Student Union,No,foodsyscoords@gmail.com,37.869507,-122.259683,Yes,,,,10am-2pm,10am-6:30pm,11:30am-7:30pm,10:30am-7:30pm,10:30am-7:30pm,11:30am-7:30pm,10am-2pm,510 642-0055,
Gender Equity and Resource Center,Campus Resource,"202 Cesar Chavez, Berkeley, CA 94705",Cesar Chavez Student Center,No,geneq@berkeley.edu,37.869911,-122.260266,Yes,,,,Closed,9am-5pm,9am-5pm,9am-5pm,9am-5pm,9am-5pm,Closed,510 642-4786,
Office for the Prevention of Harassment & Discrimination,Campus Resource,"2111 Bancroft Way, Suite 300. Berkeley, CA 94720-1120",Office of the Chancellor,Yes,ask_ophd@berkeley.edu,37.868198,-122.266918,Yes,,,,Closed,9am-5pm,9am-5pm,9am-5pm,9am-5pm,9am-5pm,Closed,510 643-7985,
Office of the Registrar,Campus Resource,120 Sproul Hall,120 Sproul Hall,No,orres@berkeley.edu,37.869622,-122.25876,Yes,,,,Closed,Cloased,10am-12pm,2pm-4pm,2pm-4pm,10am-12pm,Closed,510-664-9181,
Ombuds Office,Campus Resource,"2350 Bowditch Street, Berkeley, California",Fox Cottage,Yes,,37.869475,-122.256267,Yes,,,,Closed,9am-5pm,9am-5pm,9am-5pm,9am-5pm,9am-5pm,Closed,510Â 642-7823,
Path to Care Confidential Care Advocates,Campus Resource,,PATH to Care Center,No,pathtocare@berkeley.edu,,,Yes,,,,Closed,9am-5pm,9am-5pm,9am-5pm,9am-5pm,9am-5pm,Closed,510-643-2005,
Student Advocate Office,Campus Resource,"2465 Bancroft Way, Berkeley, CA, 94704","Eshleman Hall, Office 412B",Yes,help@berkeleysao.org,37.868994,-122.250377,Yes,,,,Closed,10am-5pm,10am-5pm,10am-5pm,10am-5pm,10am-5pm,Closed,510 642-6912,
Student Legal Services,Campus Resource,"Barrow Ln, Berkeley, CA 94704",102 Sproul Hall,Yes,https://ucberkeley-sls.youcanbook.me/,37.869811,-122.258765,Yes,,,,Closed,10am-5pm,10am-5pm,10am-5pm,10am-5pm,10am-5pm,Closed,,
Suicide Prevention Resource Center,Campus Resource,"2222 Bancroft Way, Berkeley, CA 94720",UC Berkeley Counseling and Psychological Services,No,Â studentofconcern@berkeley.edu,,,Yes,,,,Closed,10am-5pm,10am-5pm,10am-5pm,10am-5pm,10am-5pm,Closed,510 642-9494,
Tang Center,Campus Resource,"2222 Bancroft Way, Berkeley, CA 94720",University Health Services,Yes,,37.867913,-122.264275,No,,,,10am-4pm,8am-5pm,8am-5pm,8am-5pm,8am-5pm,8am-5pm,10am-4pm,510 642-2000,
The Center for Student Conduct,Campus Resource,"Barrow Ln, Berkeley, CA 94704",Division of Student Affairs,Yes,,37.869811,-122.258765,Yes,,,,Closed,"9am-12pm,1pm-4pm","9am-12pm,1pm-4pm","9am-12pm,1pm-4pm","9am-12pm,1pm-4pm","9am-12pm,1pm-4pm",Closed,510-643-9069,
UCPD,Campus Resource,"1 Cross-Sproul Path, Berkeley, CA 94720",UC Police Department Berkeley,,police@berkeley.edu,37.8692,122.2587,No,,,,12am-12am,12am-12am,12am-12am,12am-12am,12am-12am,12am-12am,12am-12am,510-642-3333,
Cal Dining Food Recovery,Basic Needs Services,"2610 Channing Way, Berkeley, CA 94704",Cal Dining has partnered with RePlate to donate overproduced food to people in need. ,no,http://caldining.berkeley.edu/sustainability/waste-reduction,37.8670799,-122.2578648,Yes,,,,,,,,,,,,
CalFresh Clinics and Application Assistance,Basic Needs Services,MLK Student Union Bnorth Suite 72,"Learn about and sign up for CalFresh, which provides up to $193 food dollars each month to qualifying individuals.",no,http://calfresh.berkeley.edu/,37.869359,-122.259898,Yes,,,,,,,,,,,,
Event Food Recovery,Basic Needs Services,MLK Student Union Bnorth Suite 72,Learn about how to ensure exess food from meetings and events does not go to waste.,no,https://food.berkeley.edu/programs/community-engagement-edu/food-recovery/,37.869359,-122.259898,Yes,,,,,,,,,,,,
Food Assistance Program,Basic Needs Services,MLK Student Union Bnorth Suite 72,"The Food Assistance Program provides temporary food assistance in the form of meal points or a grocery store gift card, and is available to non-CalFresh eligible students with financial need.",no,http://financialaid.berkeley.edu/food-assistance-program,37.869548,-122.258754,Yes,,,,,,,,,,,,
Garden & Farming Skills,Basic Needs Services,University Hall,"Campus gardens are spaces to learn skills to feed yourself and are a vital part of our Basic Needs community. You can grow food almost anywhere, even in a dorm room window. Many gardens also donate to the Food Pantry throughout the year. Click on the ""Campus Gardens"" layer leaf icon to learn about our diverse garden resources.",no,https://food.berkeley.edu/programs/community-engagement-edu/campus-gardens/,37.871674,-122.266268,No,,,,,,,,,,,,
"Nutrition, Cooking, Budgeting Workshops and Demos",Basic Needs Services,MLK Student Union Bnorth and various other locations on campus,"Roll up your sleeves for hands-on, interactive cooking classes highlighting student-friendly food skills, tips, and recipes.",no,https://uhs.berkeley.edu/counseling/sos/nutrition/events,37.86771,-122.264297,Yes,,,,,,,,,,,,
Personal Food Security and Wellness NST 20,Basic Needs Services,Morgan Hall,"This course addresses attitudes, knowledge, skills and barriers in food selection, purchasing and preparation and their intersection with food security.",no,http://guide.berkeley.edu/courses/nusctx/,37.873338,-122.26419,Yes,,,,,,,,,,,,
Student Parent Association SPARR Food Donations Progam,Basic Needs Services,100 Cesar Chavez Student Center,Student Parent Association for Recruitment and Retention ,no,https://www.facebook.com/fooddonationsprogram/,37.86958,-122.260313,Yes,,,,,,,,,,,,
UC Berkeley Food Pantry,Basic Needs Services,MLK Student Union Bnorth Suite 68,"The Food Pantry was established to help students in need of emergency food assistance, in collaboration with Campus Catering Food Recovery and Gleaning programs.",no,http://pantry.berkeley.edu/,37.869211,-122.259598,Yes,,,,,,,,,,,,
University Village Bear Pantry & Diaper Bank,Basic Needs Services,"1123 Jackson St, Albany, CA 94706",The Bear Pantry has been a resource for food and diapers for families and student parents at the University Village. The Student Parent Center is collaborating with the University Village Rec Program to provide food resources to residents and families in need at University Village Albany. Apply here: http://tiny.cc/r0f8mz,no,https://www.thebearpantryatberkeley.org/,37.883825,-122.299395,No,,,,,,,,,,,,
Mental Health Resource 1,Mental Health,Graduate Assembly Wellness Office,444D Eshelman Hall,No,businessoffice@ga.berkeley.edu,,,Yes,,,,Closed,9am-5pm,9am-5pm,9am-5pm,9am-5pm,9am-5pm,Closed,510-642-2175,
Mental Health Resource 2,Mental Health,Haas School of Business,"Haas, Room F408
Haas students only, 510 642-4853",Yes,dcapone@berkeley.edu,37.871465,-122.253445,Yes,,,,Closed,Closed,8am-5pm,8am-5pm,8am-5pm,Closed,Closed,510-642-4853,
Mental Health Resource 3,Mental Health,Wurster Hall,"Room 220
All students, 510 642-6633",No,du@berkeley.edu,37.870735,-122.254893,Yes,,,,Closed,Closed,Closed,Closed,1:15pm-3pm,Closed,Closed,510 643-5738,
Mental Health Resource 4,Mental Health,Hildebrand Hall,"Room B52
CoC students only, 510 664-7723",No,,37.872536,-122.255726,Yes,,,,Closed,Closed,2pm-4pm,Closed,Closed,10am-12pm,Closed,510 664-7723,
Mental Health Resource 5,Mental Health,Bechtel Engineering Center,"Room 241
Engineering students",No,,37.874026,-122.258391,Yes,,,,Closed,Closed,2pm-4pm,Closed,Closed,Closed,Closed,510 643-7850,
Mental Health Resource 6,Mental Health,Cesar E. Chavez Student Center,"Room 150
All UC Berkeley students, 510 643-5738",No,,37.869774,-122.260036,Yes,,,,Closed,11am-5pm,"1-2pm, 3pm-5pm",2pm-4pm,2pm-6pm,Closed,Closed,510 642-9494,
Mental Health Resource 7,Mental Health,Anna Head Alumnae Hall,"Building E
All UC Berkeley students, 510 642-9494",Yes,,37.8663273,-122.259784,Yes,,,,9am-5pm,9am-5pm,9am-5pm,9am-5pm,9am-5pm,9am-5pm,Closed,510 642-9494,
Mental Health Resource 8,Mental Health,Boalt Law School,"Law students only, 510 643-5447",Yes,ctchang@berkeley.ed,37.869909,-122.2550077,Yes,,,,10am-4pm,9am-5pm,9am-5pm,9am-5pm,9am-5pm,9am-5pm,9am-5pm,510 642-9494,
Mental Health Resource 9,Mental Health,Tang Urgent CounselingÂ ,"Floor 3
All UC Berkeley students",No,,37.8676679,-122.2664745,No,,,,Closed,8am-6pm,8am-6pm,8am-6pm,8am-6pm,8am-6pm,10am-4pm,510 642-3188,
Tang Center Massage Chairs,Rest,Tang Center,2 Massage Chairs,,,37.867668,-122.264286,No,,,,Closed,"8am-12pm, 2pm-5pm",Closed,8am-5pm,9am-12pm,9am-12pm,Closed,,
RSF Massage Chairs,Rest,RSF,3 Massage Chairs,,,37.868552,-122.262814,No,,,,Closed,Closed,8am-5pm,8am-5pm,8am-5pm,Closed,Closed,,
Moffitt Library Nap Pods,Rest,Moffitt Library 5th Floor,"2 Nap Pods, many sleep chairs",,,37.872574,-122.260748,Yes,,,,Closed,12pm-2pm,8am-12pm,Closed,ClosedÂ ,Closed,ClosedÂ ,,
Wurster Library Rest Zone,Rest,Wurster Library,REST Zone,,,37.870735,-122.254893,Yes,,,,Closed,Closed,2pm-4pm,Closed,ClosedÂ ,10am-12pm,ClosedÂ ,,
Kresge Library Nap Pod,Rest,Kresge Library First Floor,Sleep Chairs,,,37.874062,-122.258305,Yes,,,,Closed,Closed,2pm-4pm,10am-12pm,ClosedÂ ,ClosedÂ ,ClosedÂ ,,
Tolman Hall Nap Pod,Rest,Tolman Hall Tech Lounge,Sleep Chairs,,,37.874104,-122.263891,Yes,,,,Closed,12pm-5pm,11am-6:30pm,"11am-1pm, 2pm-4pm","10:30am-1:30pm, 2pm-6pm","10am-12pm, 3pm-5pm",ClosedÂ ,,
University Village Massage Chairs,Rest,University Village,2 Massage Chairs,,,37.884926,-122.301081,No,,,,Appointment by phone,Appointment by phone,Appointment by phone,Appointment by phone,Appointment by phone,Appointment by phone,Appointment by phone,,
College of Chemistry Massage Chairs,Rest,College of Chemistry,2 Massage Chairs,,,37.873109,-122.256028,Yes,,,,Closed,8am-5pm,Closed,8am-5pm,Closed,8am-5pm,Closed,,
Printer 1,Printer,Kroeber HallÂ ,,,,37.869853,-122.255152,Yes,,,,Closed,10am-5pm,10am-5pm,10am-5pm,10am-5pm,10am-5pm,Closed,,
Printer 2,Printer,"Bioscience, Natural Resource & Public Health Library, VLSB",,,,37.871608,-122.261804,Yes,,,,1pm-10pm,9am-10pm,9am-10pm,9am-10pm,9am-10pm,9am-5pm,1pm-5pm,,
Printer 3,Printer,Haas Library,,,,37.871465,-122.253445,Yes,,,,12pm-8pm,9am-10pm,9am-10pm,9am-10pm,9am-10pm,9am-5pm,12pm-5pm,,
Printer 4,Printer,Hildebrand Hall,,,,37.872536,-122.255726,Yes,,,,1pm-5pm,9am-7pm,9am-7pm,9am-7pm,9am-7pm,9am-5pm,1pm-5pm,,
Printer 5,Printer,Doe Memorial Library,"Floor 2, Main Circulation",,,37.872183,-122.259593,Yes,,,,1pm-9pm,8am-9pm,8am-9pm,8am-9pm,8am-9pm,8am-9pm,9am-5pm,,
Printer 6,Printer,East Asian Library,,,,37.8711945,-122.2627524,Yes,,,,12pm-8pm,9am-10pm,9am-10pm,9am-10pm,9am-10pm,9am-5pm,10am-5pm,,
Printer 7,Printer,"Earth Sciences & Map Library, McCone Hall",,,,37.8691029,-122.2599461,Yes,,,,Closed,9am-7pm,9am-7pm,9am-7pm,9am-7pm,9am-5pm,Closed,,
Printer 8,Printer,Bechtel Engineering Center,,,,37.874026,-122.258391,Yes,,,,1pm-11pm,9am-12am,9am-12am,9am-12am,9am-12am,9am-7pm,1pm-7pm,,
Printer 9,Printer,"Environmental Design Library, Wurster Hall",,,,37.870735,-122.254893,Yes,,,,11am-10pm,9am-10pm,9am-10pm,9am-10pm,9am-10pm,9am-5pm,1pm-6pm,,
Printer 10,Printer,"Ethnic Studies Library, Stephens Hall",,,,37.871361,-122.257592,Yes,,,,Closed,9am-5pm,9am-5pm,9am-5pm,9am-5pm,9am-5pm,11am-5pm,,
Printer 11,Printer,"Institute of Governmental Studies, Moses Hall",,,,37.870999,-122.257992,Yes,,,,Closed,1pm-5pm,1pm-5pm,1pm-5pm,1pm-5pm,1pm-5pm,Closed,,
Printer 12,Printer,"Math Library, Evans Hall",,,,37.873685,-122.257854,Yes,,,,Closed,9am-7pm,9am-7pm,9am-7pm,9am-7pm,9am-5pm,Closed,,
Printer 13,Printer,Moffitt Library,Floors 3-5,,,37.872574,-122.260748,Yes,,,,9am-12am,12am-12am,12am-12am,12am-12am,12am-12am,12am-10pm,9am-10pm,,
Printer 14,Printer,Hargrove Music Library,,,,37.870444,-122.256187,Yes,,,,1pm-8pm,9am-8am,9am-8am,9am-8am,9am-8am,9am-5pm,1pm-5pm,,
Printer 15,Printer,"Optometry Library, Minor Hall",,,,37.8691029,-122.2599461,Yes,,,,1pm-4pm,9am-7pm,9am-7pm,9am-7pm,9am-7pm,9am-5pm,1pm-4pm,,
Printer 16,Printer,"Physics Library, Le Conte Hall",,,,37.872663,-122.257526,Yes,,,,Closed,9am-7pm,9am-7pm,9am-7pm,9am-7pm,9am-5pm,Closed,,
Printer 17,Printer,"Social Research Library, Haviland Hall",,,,37.873712,-122.261048,Yes,,,,1pm-5pm,9am-6pm,9am-6pm,9am-6pm,9am-6pm,9am-5pm,Closed,,
Printer 18,Printer,Sproul Hall,,,,37.869565,-122.258786,Yes,,,,Closed,9am-4pm,9am-4pm,9am-4pm,9am-4pm,9am-4pm,Closed,,
Lyft Bike @ Hearst Ave at Euclid Ave,Lyft Bike,Hearst Ave at Euclid Ave,,,,37.87508,-122.26014,No,,,,,,,,,,,,
Lyft Bike @ Shattuck Ave at Hearst Ave,Lyft Bike,Shattuck Ave at Hearst Ave,,,,37.87388,-122.26852,No,,,,,,,,,,,,
Lyft Bike @ University Ave at Oxford St,Lyft Bike,University Ave at Oxford St,,,,37.87247,-122.26616,No,,,,,,,,,,,,
Lyft Bike @ MLK Jr Way at University Ave,Lyft Bike,MLK Jr Way at University Ave,,,,37.8716,-122.27302,No,,,,,,,,,,,,
Lyft Bike @ Berkeley Civic Center,Lyft Bike,Berkeley Civic Center,,,,37.86906,-122.27046,No,,,,,,,,,,,,
Lyft Bike @ Downtown Berkeley BART,Lyft Bike,Downtown Berkeley BART,,,,37.8692,-122.26931,No,,,,,,,,,,,,
Lyft Bike @ Channing Way at Shattuck Ave,Lyft Bike,Channing Way at Shattuck Ave,,,,37.86577,-122.26764,No,,,,,,,,,,,,
Lyft Bike @ Fulton St at Bancroft Way,Lyft Bike,Fulton St at Bancroft Way,,,,37.86782,-122.266,No,,,,,,,,,,,,
Lyft Bike @ Haste St at Telegraph Ave,Lyft Bike,Haste St at Telegraph Ave,,,,37.86603,-122.25862,No,,,,,,,,,,,,
Lyft Bike @ Haste St at College Ave,Lyft Bike,Haste St at College Ave,,,,37.86657,-122.25408,No,,,,,,,,,,,,
Lyft Bike @ Bancroft Way at Telegraph Ave,Lyft Bike,Bancroft Way at Telegraph Ave,,,,37.86871,-122.25919,No,,,,,,,,,,,,
Lyft Bike @ Bancroft Way at College Ave,Lyft Bike,Bancroft Way at College Ave,,,,37.86928,-122.25456,No,,,,,,,,,,,,
Campus Shared Services Lactation Room,Lactation,,,,,37.873235,-122.30227,Yes,,,,,,,,,,,,
Berkeley Way West,Lactation,,"Lactation rooms are located on the 5th, 4th, and 3rd floors. To request access to the 5th floor room, contact the Building Manager at agarcia@ngkf.com",,,37.873355,-122.26799,Yes,,,,,,,,,,,,
Birge Hall Lactation Room,Lactation,,,,,37.872165,-122.257341,Yes,,,,,,,,,,,,
California Hall Lactation Room,Lactation,,See building manager for access,,,37.871901,-122.260359,Yes,,,,,,,,,,,,
Cheit Hall at Haas Lactation Room,Lactation,,,,,37.8718,-122.2543,Yes,,,,,,,,,,,,
Dwinelle Hall Lactation Room,Lactation,,,,,37.87044,-122.260431,Yes,,,,,,,,,,,,
Energy Biosciences Building Lactation Room,Lactation,,"For access to the lactation room, please contact Kristy Nordahl at knordahl@berkeley.edu or 510 664-7110",,,37.873828,-122.266938,Yes,,,,,,,,,,,,
Eshleman Hall Lactation Room,Lactation,,,,,37.868722,-122.260761,Yes,,,,,,,,,,,,
Evans Hall Lactation Room,Lactation,,,,,37.873761,-122.257867,Yes,,,,,,,,,,,,
Giannini Hall Lactation Room,Lactation,,,,,37.873528,-122.262311,Yes,,,,,,,,,,,,
Haas School of Business Lactation Room,Lactation,,,,,37.871466,-122.25373,Yes,,,,,,,,,,,,
Li Ka Shing Center Lactation Room,Lactation,,See building manager for access: lks_help@berkeley.edu or visit building management in 171 Li Ka Shing Center,,,37.873168,-122.265225,Yes,,,,,,,,,,,,
Life Sciences Addition Lactation Room,Lactation,,"See building manager for access: Barbara Duncan, bduncan@berkeley.edu or 510 643-8121",,,37.871615,-122.263352,Yes,,,,,,,,,,,,
Moffitt Library Lactation Room,Lactation,,,,,37.872493,-122.260673,Yes,,,,,,,,,,,,
Residential Student Services Building Lactation Room,Lactation,,See building manager for access,,,37.867044,-122.255722,Yes,,,,,,,,,,,,
Simon Hall Lactation Room,Lactation,,,,,37.869857,-122.252633,Yes,,,,,,,,,,,,
Stanley Hall Lactation Room,Lactation,,"See building manager for access: Geoff Bingaman, gbingaman@berkeley.edu or 510 666-3306",,,37.874108,-122.256191,Yes,,,,,,,,,,,,
Tang Center Lactation Room,Lactation,,,,,37.867649,-122.264661,No,,,,,,,,,,,,
UC Berkeley Extension Lactation Room,Lactation,,See building manager for access,,,37.872015,-122.271301,Yes,,,,,,,,,,,,
University Hall Lactation Room,Lactation,,,,,37.871906,-122.266304,Yes,,,,,,,,,,,,
Valley Life Sciences Building Lactation Room,Lactation,,"See building manager for access: Igor Kligman, ikligman@berkeley.edu or 510 333-9523",,,37.871354,-122.262628,Yes,,,,,,,,,,,,
Warren Hall Lactation Room,Lactation,,,,,37.874395,-122.266994,Yes,,,,,,,,,,,,
Wheeler Hall,Lactation,,,,,37.871401,-122.259085,Yes,,,,,,,,,,,,
Common Grounds Microwave,Microwave,,Top floor of Dwinelle Hall,,,37.8706313,-122.2607799,Yes,,,,,,,,,,,,
Cory Hall Microwave,Microwave,,In TeaOne Cafe,,,37.875139,-122.257422,Yes,,,,,,,,,,,,
Davis Hall Microwave,Microwave,,In room 602,,,37.8746332,-122.2581178,Yes,,,,,,,,,,,,
Foothill Student Housing 6 Microwave,Microwave,,In dining hall TV room,,,37.8753488,-122.2549742,Yes,,,,,,,,,,,,
Golden Bear Cafe Microwave,Microwave,,Inside Golden Bear Cafe,,,37.869847,-122.259739,Yes,,,,,,,,,,,,
Haas School of Business Microwave,Microwave,,In room F371,,,37.8716225,-122.2535004,Yes,,,,,,,,,,,,
Le Conte Hall Microwaves,Microwave,,In lounge/break area next to room 402,,,37.872817,-122.257466,Yes,,,,,,,,,,,,
Soda Hall Microwave,Microwave,,"In room 311 CSUA Computer Science Undergraduate Association, room 562 Cafe Diem, room 678 kitchen, and room 728 kitchen",,,37.8756495,-122.2586918,Yes,,,,,,,,,,,,
Basic Needs Center Microwave,Microwave,,"Basement of MLK Jr. Student Union bNorth, in kitchen. Need Cal1 ID",,,37.8692299,-122.2596788,Yes,,,,,,,,,,,,
Terrace Cafe Microwave,Microwave,,Inside Terrace Cafe,,,37.874203,-122.25842,Yes,,,,,,,,,,,,
The Pro Shop Microwave,Microwave,,Inside the Pro Shop at Recreational Sports Facility,,,37.868745,-122.2626574,Yes,,,,,,,,,,,,
Transfer Center Microwave,Microwave,,Next to Cal 1 Card Office,,,37.8696978,-122.2602582,Yes,,,,,,,,,,,,
Valley Life Sciences Building Microwave,Microwave,,In Micro Yali's cafe; pay 50 cents to use,,,37.871513,-122.261768,Yes,,,,,,,,,,,,
Station @ Center for the Study of Law and Society,Water,,"By floor:
1 Brita water dispenser by the kitchen, between fridge and sink",,,37.870349,-122.252811,Yes,,,,,,,,,,,,
Station @ 2515 Channing Way Academic Achievement Program,Water,,"By floor:
1 Motion-sensor filler/fountain in lobby area",,,37.8718992,-122.2585399,No,,,,,,,,,,,,
Station @ 2521 Channing Way,Water,,"By floor:
1 Gooseneck filter and sink by the hallway underneath the spiral staircase to the kitchen",,,37.8672348,-122.2578788,No,,,,,,,,,,,,
Station @ Alumni House,Water,,"By floor:
1 Fountain to the right of entrance ",,,37.8696964,-122.2611015,No,,,,,,,,,,,,
Station @ Andersen Auditorium,Water,,"By floor:
1 Gooseneck filler/fountain directly to the right of the auditorium doors that face the center Haas courtyard",,,37.8721306,-122.2538182,Yes,,,,,,,,,,,,
Station @ Archaeological Research Facility,Water,,"By floor:
2 Hot/cold water dispenser inside room 201, by the door",,,37.8701625,-122.253912,No,,,,,,,,,,,,
Station @ Architects and Engineers,Water,,"By floor:
1 Fountain to the left of the entrance in the hallway",,,37.8736168,-122.2688665,Yes,,,,,,,,,,,,
Station @ Bancroft Dance Studio,Water,,"By floor:
1 Fountain just inside entrance",,,37.8686842,-122.2611793,Yes,,,,,,,,,,,,
Station @ Bancroft Library,Water,,"By floor:
3 Fountain in the hallway: once you go up the stairs it is to the left and straight down, past the restrooms",,,37.8722923,-122.2588909,Yes,,,,,,,,,,,,
Station @ Bancroft Parking Structure,Water,,"By floor:
1 Fountain by the tennis court staircase, behind trashcans",,,37.8696734,-122.2558612,Yes,,,,,,,,,,,,
Station @ Banway Building,Water,,"By floor:
3 Fountain in hallway between the restrooms",,,37.8678929,-122.266897,Yes,,,,,,,,,,,,
Station @ Barker Hall,Water,,"By floor:
G Fountain by room 2
1 Fountain by room 100
2 Fountain by room 202
3 Motion-sensor filler/fountain by restroom room 324
4 Fountain by restroom room 404
5 Fountain by menâ restroom and across from lockers 
6 Motion-sensor filler/fountain by womenâ restroom and across from lockers ",,,37.8739739,-122.2654445,Yes,,,,,,,,,,,,
Station @ Barrows Hall,Water,,"By floor:
G Motion-sensor filler/fountain by elevators and across from room 44
1 Flowater station by room 127 and motion-sensor filler/fountain by room 190
2 Fountain by room 202
3 Fountain by room 399
4 Fountain by room 499
5 Fountain by rooms 502 and 550
6 Fountain by room 698
7 Motion-sensor filler/fountain by room 798 and Fountain by room 748
8 Fountain by room 812",,,37.870345,-122.2581044,Yes,,,,,,,,,,,,
Station @ Berkeley Geochronology Center,Water,,"By floor:
1 Fountain by entrance of the building facing Berkeley Student Cooperative 
3 Hot/cold water dispenser left to the elevator",,,37.8762288,-122.2610907,Yes,,,,,,,,,,,,
Station @ Berkeley Way West,Water,,"By floor:
1 Motion-sensor filler/fountain behind the elevator, by restroom
3 Motion-sensor filler/fountain by restroom
4 Motion-sensor filler by restroom
5 Motion-sensor filler by restroom",,,37.8733816,-122.2674919,Yes,,,,,,,,,,,,
Station @ Berkeley Wireless Research Institute,Water,,"By floor:
2 Motion-sensor filler/fountain to the right of the stairs",,,37.869197,-122.267441,Yes,,,,,,,,,,,,
Station @ Betchel Engineering Center,Water,,"By floor:
1 Fountain outside library by menâ and womenâ restrooms
2 Push-button filler/fountain by menâ and womenâ restroom",,,37.8741858,-122.258188,Yes,,,,,,,,,,,,
Station @ Birge Hall,Water,,"By floor:
4 Fountain in hallway across from elevator",,,37.8722322,-122.2571898,Yes,,,,,,,,,,,,
Station @ Blum Hall,Water,,"By floor:
1 Motion-sensor filler by in the kitchen behind the refrigerator",,,37.8750255,-122.2588054,Yes,,,,,,,,,,,,
Station @ Boalt Hall,Water,,"By floor:
G Fountain in alcove between locker walls
1 Motion-sensor filler/fountain by Bridges Lecture Hall and fountain by Stuart M. Gordon Lecture Hall
2 Fountain by room 263, in hallway near the staircases on the North Addition side
3 Fountain by Gregory Faculty Lounge
4 Push-button filler/fountain by Field Placement Program Office",,,37.8694689,-122.254074,Yes,,,,,,,,,,,,
Station @ Botanical Garden,Water,,"By floor:
1 Push-button filler/fountain by main entrance/garden shop and fountain by conference center",,,37.875145,-122.2387194,Yes,,,,,,,,,,,,
Station @ C.V. Starr East Asian Library,Water,,"By floor:
3 Fountain by women's and men's restrooms, across from the elevator",,,37.8735334,-122.260478,Yes,,,,,,,,,,,,
Station @ California Memorial Stadium,Water,,"By floor:
L1 Fountain by menâ olympic sport lockers
1 Push-button filler/fountain by restrooms, motion-sensor filler/fountain by gym, and fountain by restrooms 
2 Fountains by rooms 321, 343, 353, 379, 383, Golden Dragon Concessions Stand, Oski's Cantina, guest services, stair #7, stair #10, and lactation room ",,,37.8706571,-122.2507783,Yes,,,,,,,,,,,,
Station @ Calvin Laboratory,Water,,"By floor:
1 Motion-sensor filler/fountain by room 118",,,37.8709966,-122.2538012,Yes,,,,,,,,,,,,
Station @ Campbell Hall,Water,,"By floor:
1 Motion-sensor filler/fountain in hallway 
2 Motion-sensor filler/fountain in hallway
3 Motion-sensor filler/fountain in hallway
4 Motion-sensor filler/fountain in hallway
5 Motion-sensor filler/fountain in hallway",,,37.8731446,-122.2571084,Yes,,,,,,,,,,,,
Station @ Chavez Student Center,Water,,"By floor:
1 Fountain in hallway across from the elevators
2 Push-button filler/fountain in hallway by trash bins",,,37.8697743,-122.2600361,Yes,,,,,,,,,,,,
Station @ Cheit Hall,Water,,"By floor:
1 Gooseneck filler/fountain by C110
2 Fountain by entrance from courtyard and motion-sensor filler/fountain by back corridor on second floor courtyard ",,,37.8718177,-122.2542613,Yes,,,,,,,,,,,,
Station @ Chou Hall,Water,,"By floor:
1 Push-button filler/fountain by entry
2 Push-button filler/fountain by stairwell
3 Push-button filler/fountain by stairwell
4 Push-button filler/fountain by stairwell
5 Push-button filler/fountain by stairwell
6 Push-button filler/fountain by restrooms",,,37.8722997,-122.2545436,Yes,,,,,,,,,,,,
Station @ Christian Hall,Water,,"By floor:
1 Fountain across from entrance, by restrooms",,,37.8681223,-122.2550086,Yes,,,,,,,,,,,,
Station @ CITRIS,Water,,"By floor:
3 Motion-sensor filler/fountain by room 356 ",,,37.8747581,-122.2586623,Yes,,,,,,,,,,,,
Station @ Clark Kerr Campus Building 1,Water,,"By floor:
1 Motion-sensor filler by room 113",,,37.864236,-122.248935,No,,,,,,,,,,,,
Station @ Clark Kerr Campus Building 12,Water,,"By floor:
1 Hot/cold water dispenser by main entrance ",,,37.863235,-122.248955,No,,,,,,,,,,,,
Station @ Clark Kerr Campus Building 14,Water,,"By floor:
1 Motion-sensor filler/fountain by room 102 and fountain by Joseph Wood Krutch Theatre lobby",,,37.863576,-122.24989,No,,,,,,,,,,,,
Station @ Clark Kerr Campus Building 3,Water,,"By floor:
1 Fountain by room 108
2 Fountain in hall by room 207
3 Fountain in hallway by room 307",,,37.864948,-122.248951,No,,,,,,,,,,,,
Station @ Cleary Hall,Water,,"By floor:
1 Fountain by restrooms, in hall floor lounge and push-button filler/fountain by entrance, near the elevator 
2 Fountain by restroom, end of hall
3 Fountain by restroom, end of hall
4 Fountain by restroom, end of hall",,,37.8664643,-122.2594918,Yes,,,,,,,,,,,,
Station @ Cory Hall,Water,,"By floor:
1 Gooseneck filler/fountain facing the east side stairs across from room 149
2 Fountains by Embedded Systems Design Laboratory, Chenming Hu Innovation Lab, Trust and Chess Center
3 Fountain by bridge to Sutardja Dai Hall stairs
4 Fountain by Qualcomm Swarm Lab
5 Fountain by Donald O. Pederson Center",,,37.8751638,-122.2577979,Yes,,,,,,,,,,,,
Station @ David Blackwell Hall,Water,,"By floor:
3 Motion-sensor filler by elevators
4 Motion-sensor filler by elevators
5 Motion-sensor filler by elevators
6 Motion-sensor filler by elevators
7 Motion-sensor filler by elevators
8 Motion-sensor filler by elevators",,,37.8677582,-122.2610623,No,,,,,,,,,,,,
Station @ Davis Hall,Water,,"By floor:
3 Hot/cold water dispenser by southside doors, motion-sensor filler/fountain by north side elevators, and fountain by northside exit
4 Fountain by elevators above northside entrance
5 Motion-sensor filler/fountain by northside elevators and fountain by northside elevators
6 Fountain by doors to Citrus Hall
7 Fountain by northside elevators before glass doors",,,37.8745656,-122.2580841,Yes,,,,,,,,,,,,
Station @ Department of Demography,Water,,"By floor:
1 Fountain in a small tight area near the stairs",,,37.8707803,-122.2530479,Yes,,,,,,,,,,,,
Station @ Doe Memorial Library,Water,,"By floor:
1 Gooseneck filler/fountain in hallway left of main entrance, and fountains by south entrance near elevator and by room 132
2 Fountains by menâ and women's restrooms
3 Fountain by Art History/Classics Library
4 Fountains by elevator and room 423 ",,,37.8721832,-122.2595929,Yes,,,,,,,,,,,,
Station @ Donner Lab,Water,,"By floor:
1 Fountains by room 107, room 155
2 Fountain by room 260
3 Fountains by room 315A, room 358",,,37.8744177,-122.256305,Yes,,,,,,,,,,,,
Station @ Durant Hall,Water,,"By floor:
G Fountain by restrooms",,,37.8712498,-122.2600955,Yes,,,,,,,,,,,,
Station @ Dwinelle Annex,Water,,"By floor:
1 Fountain im hallway
2 Gooseneck filler/fountain right up the stairs",,,37.8703395,-122.2612068,Yes,,,,,,,,,,,,
Station @ Dwinelle Hall,Water,,"By floor:
A Fountain by women's restroom
B Gooseneck filler/fountain by men's restroom and fountain by Office of Undergraduate Research and Scholarships
C Motion-sensor filler/fountain by Theater, Dance, and Performance Studies office, gooseneck filler/fountain by History office, and fountain by men's restroom
D Gooseneck filler/fountains by French and Comparative Literature offices and women's restrooom, motion-sensor filler/fountain left of main entrance
E Fountains right as you climb the main stairs from D, in hallway, and by offices near men's restroom, and gooseneck filler/fountain by offices in hallway
F Fountains in hallway by offices, behind double doors, at the classroom wing entrance, and at end of classroom wing hall
G Fountain by women's restroom",,,37.8705318,-122.2606042,Yes,,,,,,,,,,,,
Station @ Eshleman Hall,Water,,"By floor:
1 Push-button filler/fountain by room 32
2 Push-button filler/fountain by elevator
3 Push-button filler/fountain by elevator
4 Push-button filler/fountain by elevator
5 Push-button filler/fountain by elevators
6 Push-button filler/fountain by elevators",,,37.8687398,-122.2603875,Yes,,,,,,,,,,,,
Station @ Etcheverry Hall,Water,,"By floor:
1 Fountain by room 3105
4 Motion-sensor filler/fountains by north elevator, outside of south elevator, and by Nuclear Engineering office
5 Fountains by north Elevator and south elevator
6 Motion-sensor filler/fountains by south elevator, north elevator, and Mechanical Engineering office",,,37.8756626,-122.2592805,Yes,,,,,,,,,,,,
Station @ Evans Hall,Water,,"By floor:
G Fountains by rooms 35, 72, and 85 and motion-sensor filler/fountain by room 2
2 Fountains by rooms 235, and 291, and Letters and Science undergraduate advising desk
3 Fountains by central elevators and rooms 335 and 389
4 Fountains by central elevators and rooms 435 and 491
5 Fountains by central restrooms and rooms 535 and 591
6 Fountains by central restrooms and rooms 691A and 631
7 Fountains by central restrooms and rooms 735 and 794
8 Fountains by central restrooms and rooms 835 and 893
9 Fountains by central restrooms and rooms 989 and 935
10 Fountains by central restrooms and room 1037",,,37.8736847,-122.2578536,Yes,,,,,,,,,,,,
Station @ Fall Program for Freshmen,Water,,"By floor:
1 Fountain by elevator
2 Fountain across from lockers
3 Hot/cold water dispenser in main hallway across from the vending machines",,,37.871937,-122.27163,Yes,,,,,,,,,,,,
Station @ Genetics and Plant Biology,Water,,"By floor:
2 Fountain down the hall from the elevator and gooseneck filler/fountain by elevator ",,,37.8734357,-122.2647492,Yes,,,,,,,,,,,,
Station @ Giauque Hall,Water,,"By floor:
B Fountain by entrance",,,37.8726546,-122.2563024,Yes,,,,,,,,,,,,
Station @ Gilman Hall,Water,,"By floor:
1 Motion-sensor filler/fountain by restrooms
2 Fountain by staircase",,,37.8726066,-122.2562309,Yes,,,,,,,,,,,,
Station @ Goldman School of Public Policy,Water,,"By floor:
B Fountain by entrance to the bottom floor
1 Motion-sensor filler/fountain by front entrance ",,,37.8757268,-122.2578583,Yes,,,,,,,,,,,,
Station @ Haas Clubhouse,Water,,"By floor:
Men's Locker Fountain in men's locker room to the right as you walk in",,,37.8724255,-122.2460239,Yes,,,,,,,,,,,,
Station @ Haas Pavillion,Water,,"By floor:
B Push-button filler/fountain by room 77A
1 Fountains by Brian & Jennifer Maxwell Center for Human Performance, Bank of West ATM, and room 121
2 Fountains by women's restroom, men's restoom, section 17, and section 14-15",,,37.869187,-122.262193,Yes,,,,,,,,,,,,
Station @ Haas School of Business,Water,,"By floor:
2 Gooseneck filler/fountains by Faculty Building, Student Services Building, Business Library, room F289, and restrooms
3 Fountains by Student Services Building, Business Library, and elevators
4 Gooseneck filler/fountain by Student Services Building restrooms
5 Gooseneck filler/fountains by Student Services Building bridge",,,37.871558,-122.2537809,Yes,,,,,,,,,,,,
Station @ Hargrove Music Library,Water,,"By floor:
G Fountain by elevator
1 Fountain by entrance to building
2 Fountain by restrooms",,,37.8704442,-122.2561865,Yes,,,,,,,,,,,,
Station @ Haviland Hall,Water,,"By floor:
1 Motion-sensor filler/fountain by main entrance
2 Motion-sensor filler/fountain by main staircase",,,37.8737118,-122.2610484,Yes,,,,,,,,,,,,
Station @ Hearst Memorial Gymnasium,Water,,"By floor:
1 Fountain by east entrance, women's locker room, shower room, and room 116, and motion-sensor filler/fountains by west entranc and Calveteran Service Center
2 Gooseneck filler/fountains by rooms 212, 215, 237, 244, and trash cans, and fountain by 230 and pool entrance",,,37.8695377,-122.256978,Yes,,,,,,,,,,,,
Station @ Hearst Memorial Mining Bldg,Water,,"By floor:
2 Motion-sensor filler/fountain by elevator ",,,37.8744068,-122.2572355,Yes,,,,,,,,,,,,
Station @ Hellman Tennis Complex,Water,,"By floor:
G Fountain by track",,,37.8699713,-122.2651229,Yes,,,,,,,,,,,,
Station @ Hertz Hall,Water,,"By floor:
1 Fountain by womenâ restroom",,,37.8710584,-122.2557289,Yes,,,,,,,,,,,,
Station @ Hesse Hall,Water,,"By floor:
1 Hot/cold water dispenser by south end of building
2 Fountain in hallway stairwell",,,37.8743128,-122.2593508,Yes,,,,,,,,,,,,
Station @ Hildebrand Hall,Water,,"By floor:
B Fountains by breezeway restrooms, and rooms B78 and BG5
D Fountains by rooms D54 and D82
2 Motion-sensor filler/fountain by elevator
3 Motion-sensor filler/fountain by room 304",,,37.8725358,-122.2557257,Yes,,,,,,,,,,,,
Station @ Hilgard Hall,Water,,"By floor:
B Fountain by elevator
1 Fountain by elevator
2 Fountain by elevator
3 Fountain by elevator",,,37.8733109,-122.2634045,Yes,,,,,,,,,,,,
Station @ Human Rights Center,Water,,"By floor:
1 Fountain by stairway",,,37.8709993,-122.2530237,Yes,,,,,,,,,,,,
Station @ Jacobs Hall,Water,,"By floor:
1 Motion-sensor filler/fountains by elevator, across from restrooms
3 Motion-sensor filler/fountain by student lounge ",,,37.8760227,-122.2588207,Yes,,,,,,,,,,,,
Station @ Jones Child Study Center,Water,,"By floor:
1 Fountains by men's restroom and room 7",,,37.8657878,-122.2641178,Yes,,,,,,,,,,,,
Station @ Koret Visitor's Center,Water,,"By floor:
1 Push-button filler/fountain by elevator",,,37.8708521,-122.2518083,Yes,,,,,,,,,,,,
Station @ Koshland Hall,Water,,"By floor:
B Fountains by central stair, west stairs, and breakroom
E Fountains by west and east stairs
4 Fountain by east stairs",,,37.8737143,-122.264834,Yes,,,,,,,,,,,,
Station @ Kroeber Hall,Water,,"By floor:
1 Motion-sensor filler/fountain by right of entrance from stairs and vending machine
2 Motion-sensor filler/fountains by Bancroft entrance and Hearst Museum Directors Office
3 Fountains by elevator and women's restroom
4 Fountain by elevator",,,37.869853,-122.2551518,Yes,,,,,,,,,,,,
Station @ Latimer Hall,Water,,"By floor:
B Fountain by central elevators
1 Gooseneck filler/fountain by central stairwell
2 Fountain by central stairwell
3 Fountain by central stairwell and motion-sensor filler/fountain by elevators
5 Gooseneck filler/fountain by central elevators
6 Gooseneck filler/fountain by central elevators
7 Fountain by central elevators
8 Fountain by central elevators ",,,37.8731064,-122.2559915,Yes,,,,,,,,,,,,
Station @ Lawrence Hall of Science,Water,,"By floor:
A Gooseneck filler/fountains right of Science on a Sphere exhibit, by outdoor park entrance 
C Fountain by central stairs",,,37.879787,-122.2461845,Yes,,,,,,,,,,,,
Station @ Le Conte Hall,Water,,"By floor:
G Gooseneck filler/fountain by Birge Hall exit and fountain by room 4
1 Gooseneck filler/fountains by Birge Hall exit and restrooms 
2 Fountains by west entrance, near northside exit
3 Gooseneck filler/fountain by men's restroom",,,37.8726631,-122.2575264,Yes,,,,,,,,,,,,
Station @ Lewis Hall,Water,,"By floor:
G Fountain by room 10 
1 Fountains by elevator and room 20
2 Motion-sensor filler/fountain by elevator and fountain in hall
3 Motion-sensor filler/fountain by elevator
4 Motion-sensor filler/fountain by elevator",,,37.8730663,-122.255193,Yes,,,,,,,,,,,,
Station @ Li Ka Shing,Water,,"By floor:
1 Motion-sensor filler/fountain by restrooms
2 Motion-sensor filler/fountain by restrooms ",,,37.8731596,-122.2651666,Yes,,,,,,,,,,,,
Station @ Life Sciences Addition,Water,,"By floor:
1 Gooseneck filler/fountain by north entrance and fountain by south lobby ",,,37.8713948,-122.2632527,Yes,,,,,,,,,,,,
Station @ Main Stacks,Water,,"By floor:
B Fountain by restrooms
C Gooseneck filler/fountain by restrooms
D Fountain by restrooms ",,,37.872564,-122.259734,Yes,,,,,,,,,,,,
Station @ Mathematical Sciences Research Institute,Water,,"By floor:
1 Motion-sensor filler/fountain by Simons Auditorium entrance
2 Gooseneck filler/fountain by restrooms
3 Fountain by restrooms",,,37.8798329,-122.244342,Yes,,,,,,,,,,,,
Station @ Maximino Martinez Commons,Water,,"By floor:
1 Fountains by Channing Way entrance and Haste Street entrance 
3 Motion-sensor filler by elevator 2/room 2326
4 Motion-sensor filler by room 426
5 Motion-sensor filler by room 512
6 Motion-sensor filler by room 620/Deodar Cedar Lounge",,,37.8667623,-122.2576087,Yes,,,,,,,,,,,,
Station @ McCone Hall,Water,,"By floor:
G Fountain by central elevators
1 Fountain by central elevators
2 Fountain by central elevators
3 Fountain by central elevators
4 Fountain by central elevators
5 Motion-sensor filler/fountain by central elevators",,,37.8741759,-122.2596547,Yes,,,,,,,,,,,,
Station @ McLaughlin Hall,Water,,"By floor:
1 Fountain in central hallway
2 Fountain in central hallway
3 Fountain in central hallway
4 Fountain in central hallway",,,37.8738011,-122.2589949,Yes,,,,,,,,,,,,
Station @ Minor Hall,Water,,"By floor:
1 Motion-sensor filler/fountain by east entrance
3 Fountain by Southwest stairs
4 Fountain by northwest stairs
5 Fountain by Southwest stairs ",,,37.8714283,-122.2547013,Yes,,,,,,,,,,,,
Station @ Minor Hall Addition,Water,,"By floor:
1 Fountain in Pediatric Clinic by central stairwell
2 Fountains by Specialty Clinic F entrance and by front desk and restrooms
3 Fountain by elevator
4 Fountain by elevator
5 Fountain by elevator",,,37.8713112,-122.2551727,Yes,,,,,,,,,,,,
Station @ MLK Student Union,Water,,"By floor:
B Fountains right of the elevators, across from restrooms, and room 61A
1 Push-button filler/fountain by Student Store 
2 Motion-sensor filler/fountain by restrooms/1951 Coffee
3 Push-button filler/fountain right of Pauley ballroom
4 Push-button filler/fountain right of elevator
5 Fountain by Tilden Room",,,37.8692195,-122.2596727,Yes,,,,,,,,,,,,
Station @ Moffitt Library,Water,,"By floor:
1 Fountain by elevators
3 Fountain by womenâ restroom, Moffitt Copy Center, and restrooms by Free Speech Movement Cafe
4 Motion-sensor filler/fountains by restrooms
5 Motion-sensor filler/fountain by restrooms ",,,37.872574,-122.260748,Yes,,,,,,,,,,,,
Station @ Morgan Hall,Water,,"By floor:
B Fountain by west stairs
1 Fountain by north elevator
2 Fountain by west stairs
3 Fountain by west stairs",,,37.8733128,-122.2642654,Yes,,,,,,,,,,,,
Station @ Morrison Hall,Water,,"By floor:
G Fountains by practice rooms hall and across from elevator
1 Fountains by room 125 and east entrance
2 Fountain by hallway elevator",,,37.870892,-122.2563905,Yes,,,,,,,,,,,,
Station @ Moses Hall,Water,,"By floor:
1 Fountain by room 116
2 Fountain by main entrance 
3 Fountain by central stairwell",,,37.8710156,-122.2580873,Yes,,,,,,,,,,,,
Station @ Mulford Hall,Water,,"By floor:
1 Fountains by women's restroom and west stairs and gooseneck filler/fountain by east elevator
2 Fountains by northwest stairs and elevators
3 Fountains by northwest stairs and elevators
B Fountain by west entrance",,,37.8726315,-122.2644907,Yes,,,,,,,,,,,,
Station @ Natural Resources Laboratory,Water,,"By floor:
1 Fountain by room 18",,,37.874789,-122.266905,Yes,,,,,,,,,,,,
Station @ North Gate Hall,Water,,"By floor:
1 Hot/cold water dispenser by courtyard
B Fountain by east entrance",,,37.8749998,-122.2596684,Yes,,,,,,,,,,,,
Station @ O'Brien Hall,Water,,"By floor:
1 Fountain by elevator
2 Fountain by elevator
3 Fountain by elevator
4 Fountain by elevator",,,37.8742817,-122.259062,Yes,,,,,,,,,,,,
Station @ Pimentel Hall,Water,,"By floor:
1 Gooseneck filler/fountain in central hallway",,,37.8734123,-122.2560176,Yes,,,,,,,,,,,,
Station @ Recreational Sports Facility,Water,,"By floor:
LL Push-button filler/fountains by women's basketball locker room and in all-gender lockerroom, and motion-sensor filler/fountain by martial arts room, inside of field house, and weight room",,,37.8685989,-122.262751,Yes,,,,,,,,,,,,
Station @ Saturdja Dai Hall,Water,,"By floor:
1 Fountain by restrooms
2 Motion-sensor filler/fountain by restrooms and fountain inside of Yali's Cafe by restrooms
3 Motion-sensor filler/fountain by restrooms 
6 Fountain by restrooms",,,37.8750339,-122.2582841,Yes,,,,,,,,,,,,
Station @ Simon Hall,Water,,"By floor:
4 Fountain by restroom
5 Fountain by restroom",,,37.8699767,-122.2532914,Yes,,,,,,,,,,,,
Station @ Soda Hall,Water,,"By floor:
1 Fountain by elevators
2 Gooseneck filler/fountain by elevators
3 Fountain in south hallway and gooseneck filler/fountains in central hallway by restrooms and in north hallway
4 Gooseneck filler/fountains in south hallway and in central hallway by restrooms
5 Fountain by men's restroom
6 Fountains by men's restroom, women's restroom, and room 1",,,37.8755939,-122.2587865,Yes,,,,,,,,,,,,
Station @ South Hall,Water,,"By floor:
1 Fountain by elevator
2 Fountain by elevator
3 Fountain by elevator and hot/cold water dispenser left of elevator",,,37.8714319,-122.2584987,Yes,,,,,,,,,,,,
Station @ Space Sciences Laboratory,Water,,"By floor:
1 Fountains by central lobby and at end of rear hallway
2 Gooseneck filler/fountain by main entrance and fountain by end of rear hallway
3 Fountains by central lobby and at end of rear hallway
B Fountain by room B25",,,37.8805941,-122.2447959,Yes,,,,,,,,,,,,
Station @ Space Sciences Laboratory Addition,Water,,"By floor:
1 Fountain by men's restroom
2 Fountain by men's restroom",,,37.880669,-122.243817,Yes,,,,,,,,,,,,
Station @ Sproul Hall,Water,,"By floor:
B Fountains in UCPD waiting room and by men's restroom
1 Motion-sensor filler/fountain by stairs and gooseneck filler/fountain by northeast stairs
2 Fountain by southeast stairs
3 Fountain by exit door and motion-sensor filler/fountain by elevator 
4 Fountain by exit stair case ",,,37.869565,-122.2587865,Yes,,,,,,,,,,,,
Station @ Stanley Hall,Water,,"By floor:
B1 Motion-sensor filler/fountain by men's restroom
B2 Fountain by south elevators 
B3 Fountain by south elevators 
1 Motion-sensor filler/fountain by south elevators and fountain in north hallway by restrooms
2 Fountains by central stairwell and east hallway, and motion-sensor filler in east hallway
3 Motion-sensor filler in north hallway and fountain in west hallway
4 Fountains in north hallway and by elevators, and motion-sensor filler in north hallway
5 Fountain by south hallway and motion-sensor filler by north hallway 
6 Fountain by south elevators and motion-sensor filler by north elevators
7 Fountain by south elevators",,,37.8738194,-122.2564463,Yes,,,,,,,,,,,,
Station @ Stephens Hall,Water,,"By floor:
1 Fountain by library restrooms 
2 Hot/cold water dispenser by elevators ",,,37.8713614,-122.2575925,Yes,,,,,,,,,,,,
Station @ Tan Hall,Water,,"By floor:
B Fountain by central stairs
D Fountain by central stairs
1 Gooseneck filler/fountain by room 180
2 Fountain by central stairwell
3 Fountain by central stairwell
4 Fountain by central stairwell
5 Motion-sensor filler/fountain by central stairwell
6 Fountain by central stairwell",,,37.8732811,-122.256512,Yes,,,,,,,,,,,,
Station @ Tang Center,Water,,"By floor:
1 Motion-sensor filler/fountain by restrooms
2 Motion-sensor filler/fountains in hallway, by restrooms, and by elevator/south stairs
3 Motion-sensor filler/fountain in hallway, by restrooms, elevator/south stairs",,,37.8676679,-122.2642858,No,,,,,,,,,,,,
Station @ UC Berkeley Career Center,Water,,"By floor:
2 Fountains by womenâ bathroom, left of entrance, and Hot/Cold water dispenser by conference room
3 Fountains by womenâ restroom, left of entrance",,,37.8684538,-122.2603374,No,,,,,,,,,,,,
Station @ UC Berkeley Extension,Water,,"By floor:
2 Fountain by room 2993
3 Fountain by restrooms near Parking and Transportation
4 Fountains by restrooms, room 410, and right of elevator
5 Fountains by restrooms, room 540, and left of elevator",,,37.87207,-122.271038,Yes,,,,,,,,,,,,
Station @ Unit 1 Central Building,Water,,"By floor:
1 Motion-sensor filler/fountain by exercise room",,,37.867817,-122.255084,No,,,,,,,,,,,,
Station @ Unit 1 Cheney,Water,,"By floor:
G Motion-sensor filler/fountain by ground floor lobby
1 Fountain by restroom
2 Fountain at end of hallway 
3 Fountain by restroom
4 Fountain at end of hallway
5 Fountain by restroom
6 Fountain at end of hallway
7 Fountain by restroom
8 Fountain at end of hallway",,,37.868063,-122.255653,No,,,,,,,,,,,,
Station @ Unit 1 Christian,Water,,"By floor:
G Motion-sensor filler/fountain by kitchenette ",,,37.868117,-122.255021,No,,,,,,,,,,,,
Station @ Unit 1 Deutsch,Water,,"By floor:
G Motion-sensor filler/fountain in ground floor lobby
1 Fountain by restroom
2 Fountain by elevator
3 Fountain by restroom
4 Fountain by elevator
5 Fountain by restroom
6 Fountain by elevator 
7 Fountain by restroom
8 Fountain by elevator ",,,37.867604,-122.255761,No,,,,,,,,,,,,
Station @ Unit 1 Freeborn,Water,,"By floor:
G Motion-sensor filler/fountain in ground floor lobby
1 Fountain by restroom
2 Fountain at end of hallway
3 Fountain by restroom
4 Fountain at end of hallway 
5 Fountain by restroom
6 Fountain at end of hallway
7 Fountain by elevator
8 Fountain at end of hallway",,,37.868035,-122.254568,No,,,,,,,,,,,,
Station @ Unit 1 Putnam,Water,,"By floor:
G Motion-sensor filler/fountain in ground floor lobby 
1 Fountain by restroom
2 Fountain at end of hallway
3 Fountain by restroom
4 Fountain at end of hallway 
5 Fountain by restroom
6 Fountain at end of hallway
7 Fountain by restroom
8 Fountain at end of hallway ",,,37.867572,-122.254629,No,,,,,,,,,,,,
Station @ Unit 1 Slottman,Water,,"By floor:
L Fountain by restrooms",,,37.8675717,-122.2552284,No,,,,,,,,,,,,
Station @ Unit 2 Central Building,Water,,"By floor:
L Fountains by mailroom near restrooms and motion-sensor filler/fountain by exercise room",,,37.866078,-122.254722,No,,,,,,,,,,,,
Station @ Unit 2 Cunningham,Water,,"By floor:
1 Fountain by restroom
2 Fountain at end of hallway
3 Fountain by restroom
4 Fountain at end of hallway
5 Fountain by restroom
6 Fountain at end of hallway 
7 Fountain by restroom
8 Fountain at end of hallway",,,37.866282,-122.255314,No,,,,,,,,,,,,
Station @ Unit 2 Davidson,Water,,"By floor:
G Motion-sensor filler/fountain in ground floor lobby
1 Fountain by restroom
2 Fountain at end of hallway
3 Fountain by restroom
4 Fountain at end of hallway 
5 Fountain by restroom
6 Fountain at end of hallway
7 Fountain by elevator
8 Fountain at end of hallway",,,37.866245,-122.254204,No,,,,,,,,,,,,
Station @ Unit 2 Ehrman,Water,,"By floor:
G Motion-sensor filler/fountain in ground floor lobby
1 Fountain by restroom
2 Fountain at end of hallway
3 Fountain by restroom
4 Fountain at end of hallway 
5 Fountain by restroom
6 Fountain at end of hallway
7 Fountain by elevator
8 Fountain at end of hallway",,,37.8658163,-122.2553216,No,,,,,,,,,,,,
Station @ Unit 2 Griffiths,Water,,"By floor:
G Motion-sensor filler/fountain in ground floor lobby
1 Fountain by restroom
2 Fountain at end of hallway
3 Fountain by restroom
4 Fountain at end of hallway 
5 Fountain by restroom
6 Fountain at end of hallway
7 Fountain by elevator
8 Fountain at end of hallway",,,37.8658305,-122.2542822,No,,,,,,,,,,,,
Station @ Unit 2 Towle,Water,,"By floor:
G Motion-sensor filler/fountain by kitchenette",,,37.8663608,-122.2547613,No,,,,,,,,,,,,
Station @ Unit 3 Central Building,Water,,"By floor:
1 Motion-sensor filler by restrooms",,,37.8671639,-122.2603673,No,,,,,,,,,,,,
Station @ Unit 3 Ida Sproul Hall,Water,,"By floor:
1 Motion-sensor filler/fountain inside entrance",,,37.8669358,-122.260879,No,,,,,,,,,,,,
Station @ Unit 3 Norton Hall,Water,,"By floor:
1 Fountain inside entrance",,,37.867415,-122.260838,No,,,,,,,,,,,,
Station @ Unit 3 Priestley Hall,Water,,"By floor:
1 Motion-sensor filler/fountain inside entrance",,,37.866918,-122.259836,No,,,,,,,,,,,,
Station @ Unit 3 Spens-Black Hall,Water,,"By floor:
1 Motion-sensor filler/fountain inside entrance ",,,37.867502,-122.26,No,,,,,,,,,,,,
Station @ University Hall,Water,,"By floor:
G Gooseneck filler/fountain by restrooms
1 Motion-sensor filler/fountain by restrooms
2 Fountains by restrooms and room 225
3 Gooseneck filler/fountain by restrooms
4 Fountains by south stairs and restrooms
5 Fountain by restrooms and gooseneck filler/fountain by south stairs
6 Motion-sensor filler/fountain by south stairs
7 Fountain by restrooms",,,37.8722049,-122.2662639,Yes,,,,,,,,,,,,
Station @ Valley Life Sciences Building,Water,,"By floor:
1 Fountain by room 4 and gooseneck filler/fountain by central elevators
2 Fountain by courtyard door and gooseneck filler/fountain in central elevator lobby
3 Fountain by central stairwell and gooseneck filler/fountain in central elevator lobby
4 Gooseneck filler/fountain in central elevator lobby
5 Gooseneck filler/fountain in central elevator lobby",,,37.8714023,-122.2622038,Yes,,,,,,,,,,,,
Station @ Wellman Hall,Water,,"By floor:
2 Gooseneck filler/fountain in central hallway
3 Fountain in central hallway
4 Fountain in central hallway",,,37.873023,-122.262785,Yes,,,,,,,,,,,,
Station @ Wheeler Hall,Water,,"By floor:
1 Motion-sensor filler/fountain in hallway by South Drive 
2 Motion-sensor filler/fountain in hallway stairway by South Drive 
3 Motion-sensor filler/fountain by main two stairwells ",,,37.8713136,-122.2591478,Yes,,,,,,,,,,,,
Station @ Wurster Hall,Water,,"By floor:
1 Motion-sensor filler/fountain underneath stairwell by restrooms",,,37.8707352,-122.2548935,Yes,,,,,,,,,,,,
Bin @ Berkeley Way Offsite,Waste,,,,,37.8707352,-122.2548935,Yes,,,,,,,,,,,,
Bin @ California Hall,Waste,,,,,37.87219201,-122.260056,Yes,,,,,,,,,,,,
Bin @ North Entrance Memorial Glade,Waste,,,,,37.87326917,-122.2599746,Yes,,,,,,,,,,,,
Bin @ University Library,Waste,,,,,37.87284757,-122.2593365,Yes,,,,,,,,,,,,
Bin @ North Gate Entrance,Waste,,,,,37.87456175,-122.2601911,Yes,,,,,,,,,,,,
Bin @ V&A Cafe and Etcheverry,Waste,,,,,37.87561717,-122.2589365,Yes,,,,,,,,,,,,
Bin @ Sutardja Dali Hall and Yali's,Waste,,,,,37.87487324,-122.2589027,Yes,,,,,,,,,,,,
Bin @ Sutardja Dai Hall and Yali's,Waste,,,,,37.87457207,-122.2587756,Yes,,,,,,,,,,,,
Bin @ Cory Hall,Waste,,,,,37.87533585,-122.2575532,Yes,,,,,,,,,,,,
Bin @ Betchel Terrace Cafe,Waste,,,,,37.87410601,-122.2584779,Yes,,,,,,,,,,,,
Bin @ Bechtel and Evans,Waste,,,,,37.87396522,-122.258146,Yes,,,,,,,,,,,,
Bin @ Hearst Mining Main Entrance,Waste,,,,,37.87408696,-122.2571321,Yes,,,,,,,,,,,,
Bin @ Evans Hall Bus Stop,Waste,,,,,37.87342347,-122.2573839,Yes,,,,,,,,,,,,
Bin @ Stanley Hall,Waste,,,,,37.87386121,-122.2565279,Yes,,,,,,,,,,,,
Bin @ Le Conte Hall,Waste,,,,,37.8726991,-122.257871,Yes,,,,,,,,,,,,
Bin @ Bancroft Library,Waste,,,,,37.87239289,-122.2585805,Yes,,,,,,,,,,,,
Bin @ Campanile,Waste,,,,,37.87225447,-122.2578241,Yes,,,,,,,,,,,,
Bin @ Tan and Campbell,Waste,,,,,37.87296058,-122.2566258,Yes,,,,,,,,,,,,
Bin @ Latimer Courtyard,Waste,,,,,37.87290024,-122.2559794,Yes,,,,,,,,,,,,
Bin @ South Path Drive,Waste,,,,,37.87219254,-122.2564236,Yes,,,,,,,,,,,,
Bin @ Chou Hall,Waste,,,,,37.87204794,-122.2546778,Yes,,,,,,,,,,,,
Bin @ Cafe Think,Waste,,,,,37.87191478,-122.254318,Yes,,,,,,,,,,,,
Bin @ May Morrison Hall,Waste,,,,,37.8709555,-122.2563492,Yes,,,,,,,,,,,,
Bin @ Glade Path,Waste,,,,,37.87315167,-122.2587112,Yes,,,,,,,,,,,,
Bin @ Chiet Hall,Waste,,,,,37.87143743,-122.2539268,Yes,,,,,,,,,,,,
Bin @ Cronk Gate,Waste,,,,,37.87171932,-122.2530092,Yes,,,,,,,,,,,,
Bin @ Coffee Lab,Waste,,,,,37.87281634,-122.2558252,Yes,,,,,,,,,,,,
Bin @ LibraryandCampanile Way,Waste,,,,,37.87172752,-122.258903,Yes,,,,,,,,,,,,
Bin @ Campanili East,Waste,,,,,37.87179078,-122.258332,Yes,,,,,,,,,,,,
Bin @ South Hall Rd. Near Clocktower,Waste,,,,,37.87166667,-122.2580556,Yes,,,,,,,,,,,,
Bin @ Spieker Plaza Center,Waste,,,,,37.86953238,-122.2616335,Yes,,,,,,,,,,,,
Bin @ Grade Street,Waste,,,,,37.86992118,-122.2608047,Yes,,,,,,,,,,,,
Bin @ Zellerbach,Waste,,,,,37.86941328,-122.2606173,Yes,,,,,,,,,,,,
Bin @ Cesar Chavez,Waste,,,,,37.86956494,-122.2603454,Yes,,,,,,,,,,,,
Bin @ Bear's Lair,Waste,,,,,37.86881354,-122.2600959,Yes,,,,,,,,,,,,
Bin @ Cal Book Store,Waste,,,,,37.86891517,-122.2599068,Yes,,,,,,,,,,,,
Bin @ MLK Courtyard,Waste,,,,,37.86908535,-122.2600034,Yes,,,,,,,,,,,,
Bin @ MLK Ramp,Waste,,,,,37.8693532,-122.2600175,Yes,,,,,,,,,,,,
Bin @ Golden Bear Cafe Walkway,Waste,,,,,37.86984999,-122.2594767,Yes,,,,,,,,,,,,
Bin @ Golden Bear Cafe Entry,Waste,,,,,37.86990345,-122.2596078,Yes,,,,,,,,,,,,
Bin @ Upper MLK Union,Waste,,,,,37.86917323,-122.2593479,Yes,,,,,,,,,,,,
Bin @ Bancroft Way,Waste,,,,,37.86908138,-122.2590717,Yes,,,,,,,,,,,,
Bin @ Sproul Hall Steps,Waste,,,,,37.8697735,-122.2592276,Yes,,,,,,,,,,,,
Bin @ Sather Gate,Waste,,,,,37.87014324,-122.2593613,Yes,,,,,,,,,,,,
Bin @ Durant Hall,Waste,,,,,37.87115904,-122.2602948,Yes,,,,,,,,,,,,
Bin @ Dwinelle Plaza Entry,Waste,,,,,37.87077474,-122.2600607,Yes,,,,,,,,,,,,
Bin @ Dwinelle Walkway,Waste,,,,,37.87094333,-122.2597415,Yes,,,,,,,,,,,,
Bin @ Wheeler Walkway,Waste,,,,,37.87086234,-122.2592014,Yes,,,,,,,,,,,,
Bin @ Sproul Hall UCPD,Waste,,,,,37.86912003,-122.2586402,Yes,,,,,,,,,,,,
Bin @ Barrows Hall,Waste,,,,,37.86990239,-122.2576018,Yes,,,,,,,,,,,,
Bin @ Boalt Law,Waste,,,,,37.87002679,-122.2542849,Yes,,,,,,,,,,,,
"Bin @ Rice & Bones, Wurster",Waste,,,,,37.87061064,-122.2550685,Yes,,,,,,,,,,,,
Bin @ Kroeber Hall,Waste,,,,,37.86956426,-122.2549899,Yes,,,,,,,,,,,,
Bin @ A&E Sproul,Waste,,,,,37.87008475,-122.2589982,Yes,,,,,,,,,,,,
Bin @ Anthony Hall,Waste,,,,,37.87054315,-122.2582432,Yes,,,,,,,,,,,,
Bin @ Wheeler,Waste,,,,,37.87104231,-122.2586915,Yes,,,,,,,,,,,,
Bin @ Birge Path,Waste,,,,,37.87041373,-122.2554668,Yes,,,,,,,,,,,,
Bin @ Hearst Gym - East Side,Waste,,,,,37.86965969,-122.2563127,Yes,,,,,,,,,,,,
Bin @ HFA and Hearst Gym - West Side,Waste,,,,,37.86944213,-122.2574918,Yes,,,,,,,,,,,,
Bin @ Spieker Plaza,Waste,,,,,37.86893449,-122.2616218,Yes,,,,,,,,,,,,
Bin @ Lower Crescent,Waste,,,,,37.87060588,-122.2655592,Yes,,,,,,,,,,,,
Bin @ Crescent,Waste,,,,,37.87182387,-122.2651391,Yes,,,,,,,,,,,,
Bin @ Li Ka Shing Hall,Waste,,,,,37.87285419,-122.2650493,Yes,,,,,,,,,,,,
Bin @ Morgan Hall,Waste,,,,,37.8732218,-122.2639308,Yes,,,,,,,,,,,,
Bin @ Brown's Cafe,Waste,,,,,37.87314554,-122.2649696,Yes,,,,,,,,,,,,
Bin @ West Circle,Waste,,,,,37.87207741,-122.2633246,Yes,,,,,,,,,,,,
Bin @ University Drive,Waste,,,,,37.87277664,-122.2624248,Yes,,,,,,,,,,,,
Bin @ Moffitt Library @ Cafe Patio,Waste,,,,,37.87230989,-122.261057,Yes,,,,,,,,,,,,
Bin @ Moffitt Library @ Free Speech Entrance,Waste,,,,,37.87230723,-122.2606441,Yes,,,,,,,,,,,,
Bin @ Moffitt Library @ Press,Waste,,,,,37.87280822,-122.2603347,Yes,,,,,,,,,,,,
Bin @ VLSB and Campanile Way,Waste,,,,,37.871163,-122.2619255,Yes,,,,,,,,,,,,
Bin @ Recreational Sports Facility,Waste,,,,,37.86863539,-122.2623865,Yes,,,,,,,,,,,,
Bin @ Koshland,Waste,,,,,37.87354759,-122.2651391,N,,,,,,,,,,,,
Bin @ VLSB Northside,Waste,,,,,37.87221662,-122.2618555,Yes,,,,,,,,,,,,
Bin @ Mulford Hall,Waste,,,,,37.87294788,-122.2644441,Yes,,,,,,,,,,,,
Bin @ Campanile Way West Entrance,Waste,,,,,37.87077315,-122.2632331,Yes,,,,,,,,,,,,
Basic Needs Herb Vertical Garden,Campus Garden,,basicneedssupport@berkeley.edu,,,37.869431,-122.259694,Yes,,,,Closed,9am-5pm,9am-5pm,9am-5pm,9am-5pm,9am-5pm,Closed,,
Blake Garden,Campus Garden,,"Garden Manager Meghan Ray, 510 524-2449 or meghanray@berkeley.edu",,,37.913539,-122.284945,Yes,,,,Closed,8am-4:30pm,8am-4:30pm,8am-4:30pm,8am-4:30pm,8am-4:30pm,Closed,,
Campus Ecological Action and Sustainable Design Gardens Barker,Campus Garden,,"Jessica Gonzalez, jessica.gonzalez@berkeley.edu and Isabel Ortiz, ixortiz@berkeley.edu",,,37.873713,-122.265895,N,,,,Closed,2-4pm,2-4pm,2-4pm,2-4pm,2-4pm,Closed,,
Campus Ecological Action and Sustainable Design Gardens Giannini,Campus Garden,,"Jessica Gonzalez, jessica.gonzalez@berkeley.edu and Isabel Ortiz, ixortiz@berkeley.edu",,,37.873579,-122.262584,N,,,,Closed,2-4pm,2-4pm,2-4pm,2-4pm,2-4pm,Closed,,
Campus Ecological Action and Sustainable Design Gardens Mulford,Campus Garden,,"Jessica Gonzalez, jessica.gonzalez@berkeley.edu and Isabel Ortiz, ixortiz@berkeley.edu",,,37.872516,-122.264076,N,,,,Closed,2-4pm,2-4pm,2-4pm,2-4pm,2-4pm,Closed,,
Casa Zimbabwe Garden,Campus Garden,,"House Manager, cazhm@bsc.coop",,,37.875578,-122.260886,N,,,,,,,,,,,,
Clark Kerr Garden,Campus Garden,,clarkkerrgarden@gmail.com,,,37.863512,-122.248947,N,,,,10am-12pm,Closed,Closed,Closed,Closed,1pm-3pm,Closed,,
Cloyne Court Hotel Garden,Campus Garden,,"House Manager, clohm@bsc.coop",,,37.876127,-122.258085,N,,,,,,,,,,,,
Faculty and Staff Community Garden,Campus Garden,,"Kim Guess, kguess@berkeley.edu",,,37.87296,-122.264874,N,,,,,,,,,,,,
Fannie Lou Hamer Garden,Campus Garden,,"Student Manager Gia Jones, gijones@berkeley.edu",,,37.86957,-122.258121,N,,,,,,,,,,,,
Fenwick Weavers' Village,Campus Garden,,"Landscape Manager, rocland@bsc.coop",,,37.865125,-122.260232,N,,,,,,,,,,,,
Garden Village,Campus Garden,,"Top Leaf Farms, UCB Housing, Bluma Flower Farms",,,37.864575,-122.265032,N,,,,,,,,,,,,
Little Medinical Garden,Campus Garden,,,,,37.86959,-122.258123,N,,,,,,,,,,,,
Lothlorien,Campus Garden,,"House Manager, lothm@bsc.coop",,,37.867903,-122.249523,N,,,,,,,,,,,,
Multicultural Community Center Garden,Campus Garden,,mcc.community@berkeley.edu,,,37.869409,-122.259738,N,,,,12am-11:59pm,12am-11:59pm,12am-11:59pm,12am-11:59pm,12am-11:59pm,12am-11:59pm,12am-11:59pm,,
Oxford Tract,Campus Garden,,"Christina Wistrom, cwistrom@berkeley.edu",,,37.876408,-122.267206,N,,,,,,,,,,,,
Pat Brown Container Garden,Campus Garden,,"Sandra Jacquez, jacquez@berkeley.edu",,,37.873359,-122.264898,N,,,,,,,,,,,,
Peopleâ Park Community Garden,Campus Garden,,"Darin Bauer, darinallenbauer@yahoo.com",,,37.865865,-122.257876,N,,,,12am-11:59pm,12am-11:59pm,12am-11:59pm,12am-11:59pm,12am-11:59pm,12am-11:59pm,12am-11:59pm,,
Rochdale Village Apartments,Campus Garden,,"Landscape Manager, rocland@bsc.coop",,,37.865605,-122.259789,N,,,,,,,,,,,,
Student Organic Garden Association,Campus Garden,,studentorganicfarm@gmail.com,,,37.8767,-122.2676,N,,,,10am-2pm,,,,,,,,
The UC Village Kids Garden,Campus Garden,,"Center Director Iris Bradford, ivbradford@berkeley.edu",,,37.884001,-122.298801,N,,,,,,,,,,,,
The University Village Community Garden,Campus Garden,,,,,37.88362236,-122.3054856,N,,,,,,,,,,,,
UC Berkeley Botanical Garden,Campus Garden,,"Visitor Experience Coordinator Megan Peterson, 510 664-9807 or meganpeterson@berkeley.edu",,,37.875163,-122.238594,N,,,,9am-5pm,9am-5pm,9am-5pm,9am-5pm,9am-5pm,9am-5pm,9am-5pm,,
UC Gill Tract Community Farm,Campus Garden,,"contact@gilltractfarm.org, sogoreatelandtrust@gmail.com, or email on webpage",,,37.8864,-122.2982,N,,,,12am-5pm,11am-2pm,2pm-5pm,11am-2pm,2-5pm,,,,
Berkeley Student Food Collective,Cafe,2440 Bancroft Way,"Non-profit, collective grocery store dedicated to providing fresh, local, healthy, sustainable, and ethically produced food at affordable prices.",,,37.868455,-122.260462,N,Yes,Yes,< $10,11am-6pm,9am-8pm,9am-8pm,9am-8pm,9am-8pm,9am-8pm,11am-6pm,,
Babette ,Cafe,Berkeley Art Museum,"Cafe on the second floor of the Berkeley Art Museum/Pacific Film Archive serving primarily sustainably sourced food and drinks, including locally-roasted Ritual Coffee.",,,37.8708,-122.266426,N,No,No,> $15,9am-7pm,9am-7pm,9am-7pm,9am-7pm,9am-7pm,9am-7pm,9am-7pm,,
Babette South Hall Coffee Bar,Cafe,South Hall,Small kiosk serving a selection of baked goods and locally-roasted Ritual Coffee.,,,37.871325,-122.258586,N,No,Yes,< $10,9am-3pm,9am-3pm,9am-3pm,9am-3pm,9am-3pm,9am-3pm,9am-3pm,,
I-House Cafe,Cafe,International House,"Cafe serving direct trade coffees, hot breakfasts, fresh pastries, and an array of grab and go salads and sandwiches, some made with local ingredients.",,,37.86968,-122.252009,N,Yes,No,< $10,9am-10pm,7am-11pm,7am-11pm,7am-11pm,7am-11pm,7am-10pm,9am-10pm,,
I-House Dining Commons,Cafe,International House,"Dining hall serving fresh salads, soup, pasta and specialty items, with a variety of vegan/vegetarian and gluten-free options.",,,37.869667,-122.251616,N,No,No,$10-15,"9:30am-1pm, 6pm-8pm","7:15am-9:30am, 11:30am-1:30pm,6pm-8pm","7:15am-9:30am, 11:30am-1:30pm,6pm-8pm","7:15am-9:30am, 11:30am-1:30pm,6pm-8pm","7:15am-9:30am, 11:30am-1:30pm,6pm-8pm","7:15am-9:30am, 11:30am-1:30pm,6pm-8pm","9:30am-1pm, 6pm-8pm",,
Bear Market,Cafe,Residence Halls Unit 3,"One of CalDining's mini grocery stores with grab-and-go meals, snacks, beverages, and health and beauty items CalFresh/SNAP accepted.",,,37.867293,-122.260385,No,Yes,No,< $10,8am-11:59pm,8am-11:59pm,8am-11:59pm,8am-11:59pm,8am-11:59pm,8am-11:59pm,8am-11:59pm,,
brown's ,Cafe,GPB Teaching Building,"brown's features vegetable-forward and ""better meat"" menu options like grass-fed burgers, with ingredients from within 250 miles of campus when possible.",,,37.873334,-122.264876,Yes,Yes,No,$10-15,Closed,7:30am-6pm,7:30am-6pm,7:30am-6pm,7:30am-6pm,7:30am-4pm,Closed,,
CK Cub,Cafe,Clark Kerr Campus,"One of CalDining's mini grocery stores with grab-and-go meals, snacks, beverages, and health and beauty items.",,,37.863844,-122.248774,No,Yes,No,< $10,"10am-2pm,5:30pm-8pm","7am-9am,5:30pm-8pm","7am-9am,5:30pm-8pm","7am-9am,5:30pm-8pm","7am-9am,5:30pm-8pm","7am-9am,5:30pm-8pm","10am-2pm,5:30pm-8pm",,
Common Grounds,Cafe,Dwinelle Hall,"On the top floor of Dwinelle Hall, Common Grounds offers standard Peetâ coffee and tea products as well as grab-and-go items.",,,37.870767,-122.260766,Yes,Yes,No,< $10,8am-9pm,7:30am-3pm,7:30am-3pm,7:30am-3pm,7:30am-3pm,7:30am-3pm,8am-9pm,,
Cub Market,Cafe,Foothill Housing Unit  4,"One of CalDining's mini grocery stores with grab-and-go meals, snacks, beverages, and health and beauty items.",,,37.875392,-122.256036,No,Yes,No,< $10,7am-11:59pm,7am-11:59pm,7am-11:59pm,7am-11:59pm,7am-11:59pm,7am-10pm,10am-10pm,,
Peet's Coffee Cart at RSF,Cafe,Recreational Sports Facility,Coffee cart outside the Recreational Sports Facility serving Peet's Coffee drinks and snacks.,,,37.868569,-122.262343,No,No,No,< $10,Closed,7:30am-5:30pm,7:30am-5:30pm,7:30am-5:30pm,7:30am-5:30pm,7:30am-5:30pm,Closed,,
Terrace Cafe,Cafe,Sproul Hall,"Rooftop cafe with grab-and-go salads, sushi, sandwiches, and coffee.",,,37.874136,-122.258394,Yes,Yes,No,$10-15,Closed,7:30pm-3pm,7:30pm-3pm,7:30pm-3pm,7:30pm-3pm,7:30pm-3pm,Closed,,
The Den,Cafe,Residential Student Services Building,"A retail CalDining location featuring a Peetâ Coffee & Tea store, made-to-order deli and bagel bar, smoothies, and grab-and-go items.",,,37.866859,-122.256233,No,Yes,No,< $10,8am-11:59pm,7am-11:59pm,7am-11:59pm,7am-11:59pm,7am-11:59pm,7am-10:00pm,8am-10pm,,
The Golden Bear Cafe,Cafe,Chavez Student Center,"Made-to-order grilled items and meals, grab-and-go sandwiches, deli sandwiches including kosher options, sushi, bento boxes, salads, bagel bar, and made-to-order smoothies.",,,37.869844,-122.259647,Yes,Yes,No,$10-15,Closed,7:30am-8pm,7:30am-8pm,7:30am-8pm,7:30am-8pm,7:30am-6pm,Closed,,
The Pro Shop,Cafe,Recreational Sports Facility,"Sports drinks, fresh juices, fruit, salads, sandwiches, sushi, energy bars, high-energy snacks, and sporting goods.",,,37.868808,-122.262377,N,Yes,No,< $10,8am-9pm,7:30am-11pm,7:30am-11pm,7:30am-11pm,7:30am-11pm,7:30am-11pm,8am-9pm,,
Bear's Lair,Cafe,Eshleman Hall,On-campus pub featuring craft beer and a variety of local and seasonal ingredients.,,,37.868708,-122.260377,Yes,No,No,> $15,11am-7pm,11am-10pm,11am-10pm,11am-10pm,11am-10pm,11am-10pm,11am-10pm,,
The Faculty Club,Cafe,Men's Faculty Club,"Made up of the Faculty Club Bar, the formal Clark Kerr Dining Room with table service, and the more relaxed Great Hall, with a lunch grill, sandwich station, hot buffet, and salad line, all using organic and local ingredients whenever possible.",,,37.871669,-122.256155,No,No,No,> $15,Closed,"7:30am - 10am, 11:30am - 1:30pm, 4:30pm - 8:30pm","7:30am - 10am, 11:30am - 1:30pm, 4:30pm - 8:30pm","7:30am - 10am, 11:30am - 1:30pm, 4:30pm - 8:30pm","7:30am - 10am, 11:30am - 1:30pm, 4:30pm - 8:30pm","7:30am - 10am, 11:30am - 1:30pm, 4:30pm - 8:30pm",Closed,,
The Women's Faculty Club ,Cafe,Women's Faculty Club,"Private dining room for members and guests with Safe Harbor-certified fish, free range chicken, cage-free eggs, Fair Trade coffee, and local, organic produce when possible.",,,37.872029,-122.254891,N,No,No,> $15,Closed,11:30am - 1:30pm ,11:30am - 1:30pm ,11:30am - 1:30pm ,11:30am - 1:30pm ,11:30am - 1:30pm ,Closed,,
A Girl Named Pinky,Cafe,"Martin Luther King, Jr. Student Union",A Girl Named Pinky is dedicated to delivering custom cakes and desserts for special occasions in the SF Bay Area.,,,37.869177,-122.259804,Yes,No,No,< $10,Closed,10:00am - 4:00pm,10:00am - 4:00pm,10:00am - 4:00pm,11:00am-4:00pm,10:00am - 4:00pm,Closed,,
Bay View Cafe Cafeteria,Cafe,Lawrence Berkeley National Lab,"A certified Bay Area Green Business, the Cafe serves a wide variety of fresh entrees, including local produce, free-range chicken, grass-fed beef, cage-free eggs, dolphin-free tuna, and olive oil for cooking.",,,37.875891,-122.250783,No,No,No,$10-15,Closed,"7:30 - 9:30am, 11:30am - 2pm, 7:30am - 3pm","7:30 - 9:30am, 11:30am - 2pm, 7:30am - 3pm","7:30 - 9:30am, 11:30am - 2pm, 7:30am - 3pm","7:30 - 9:30am, 11:30am - 2pm, 7:30am - 3pm","7:30 - 9:30am, 11:30am - 2pm, 7:30am - 3pm",Closed,,
Bay View Cafe Stand,Cafe,Lawrence Hall of Science,"Coffee kiosk serving locally-roasted Sightglass coffee and Starter Bakery pastries along with healthy, grab-and-go salads, sandwiches, and snacks.",,,37.879011,-122.246621,No,No,No,$10-15,10am-4pm,10am-3pm,10am-3pm,10am-3pm,10am-3pm,10am-3pm,10am-4pm,,
Pinky & Reds,Cafe,"Martin Luther King, Jr. Student Union","Bernadine and Chef Sicily, aka Pinky & Red, a mother-daughter team, serving Delicious Goodness on a Sandwich.",,,37.869104,-122.259495,Yes,No,No,< $10,Closed,7am-7pm,7am-7pm,7am-7pm,7am-7pm,7am-7pm,Closed,,
Eunice Cafe 2,Cafe,Richmond Field Station,"Small cafe serving coffee, tea, sandwiches, and snacks.",,,37.91666,-122.332637,No,No,No,$10-15,Closed,8am - 3pm,8am - 3pm,8am - 3pm,8am - 3pm,8am - 3pm,Closed,,
Rice and Bones,Cafe,Wurster Hall,"Vietnamese-inspired entrees and small plates from Cal alum Charles Phan's Slanted Door Group, serving vegetable-driven dishes and grass-fed/organic meat.",,,37.870544,-122.254972,Yes,No,Yes,> $15,Closed,"8am - 11am, 12pm - 5pm","8am - 11am, 12pm - 5pm","8am - 11am, 12pm - 5pm","8am - 11am, 12pm - 5pm","8am - 11am, 12pm - 5pm",Closed,,
TeaOne Tea and Coffee,Cafe,Eshleman Hall,"Local chain serving a variety of milk teas, tea lattes, smoothies, and coffee, along with some snacks.",,,37.868766,-122.260216,Yes,No,No,< $10,12pm - 5pm,11am - 7pm,11am - 7pm,11am - 7pm,11am - 7pm,11am - 7pm,12pm - 5pm,,
TeaOne Tea and Coffee,Cafe,Cory Hall,"Local chain serving a variety of milk teas, tea lattes, smoothies, and coffee, along with some snacks.",,,37.87504,-122.257492,Yes,No,No,< $10,Closed,9am - 6pm,9am - 6pm,9am - 6pm,9am - 6pm,9am - 6pm,Closed,,
The Coffee Lab,Cafe,Hildebrand Hall,"Small cafe serving coffee, tea, and sandwiches.",,,37.872784,-122.255826,Yes,No,No,< $10,Closed,7:30am - 3pm,7:30am - 3pm,7:30am - 3pm,7:30am - 3pm,7:30am - 3pm,Closed,,
V&A Cafe,Cafe,Etcheverry Hall,Run by the owners of Nefeli Caffe on Euclid,,,37.87551,-122.259171,Yes,No,No,$10-15,Closed,7am - 6:30pm,7am - 6:30pm,7am - 6:30pm,7am - 6:30pm,7am - 6:30pm,Closed,,
Cafe Think,Cafe,Chou Hall,Cafe with plant-forward meals following International WELL Building Institute standards requiring fresh wholesome foods and encouraging better eating habits.,,,37.872499,-122.254577,Yes,Yes,Yes,$10-15,9am-3pm,7am - 9pm,7am - 9pm,7am - 9pm,7am - 9pm,7am - 4pm,7am - 4pm,,
Cafe Zeb,Cafe,Boalt Hall,"Cafe inside Boalt Hall serving coffee, tea, and a variety of paninis, sandwiches, quesadillas, and salads.",,,37.869787,-122.253333,Yes,Yes,No,$10-15,Closed,6:30am - 7pm,6:30am - 7pm,6:30am - 7pm,6:30am - 7pm,6:30am - 4pm,Closed,,
Free Speech Movement Cafe,Cafe,Moffitt Library,"Cafe honoring the Free Speech Movement at Berkeley, serving coffee and tea, soups, salads and sandwiches made with local, sustainable or organic ingredients when available.",,,37.87239,-122.260963,Yes,Yes,No,< $10,1pm - 2am,6:30am - 2am,6:30am - 2am,6:30am - 2am,6:30am - 2am,6:30am - 10pm,9am - 10pm,,
Press,Cafe,Moffitt Library,"Outdoor coffee stand serving coffees and teas, soft-serve ice cream, smoothies, soups, paleo muffins and other baked goods, and hot wraps.",,,37.872761,-122.260427,Yes,No,No,< $10,Closed,7:30am-5:30pm,7:30am-5:30pm,7:30am-5:30pm,7:30am-5:30pm,7:30am-5:30pm,Closed,,
Micro Yali's,Cafe,Valley Life Sciences Buiilding,Micro Yaliâ is a certified Bay Area Green Business serving coffee and snacks.,,,37.871611,-122.261803,Yes,No,No,< $10,Closed,7:30am - 3pm,7:30am - 3pm,7:30am - 3pm,7:30am - 3pm,7:30am - 3pm,Closed,,
Yali's Coffee Shop,Cafe,Stanley Hall,"Yaliâ is a certified Bay Area Green Business serving coffee, snacks, and light meals using local, sustainable, fresh ingredients when possible.",,,37.873912,-122.256486,Yes,Yes,Yes,< $10,Closed,7am - 6pm,7am - 6pm,7am - 6pm,7am - 6pm,7am - 5pm,Closed,,
Qualcomm Cafe,Cafe,Sutardja Dai Hall,"Yaliâ is a certified Bay Area Green Business serving coffee, snacks, and light meals using local, sustainable, fresh ingredients when possible.",,,37.874711,-122.258636,Yes,Yes,No,$10-15,Closed,7am - 6pm,7am - 6pm,7am - 6pm,7am - 6pm,7am - 5pm,Closed,,
Noodle Girl,Cafe,"Martin Luther King, Jr. Student Union","Noodle Girl is a fresh modern Vietnamese food concept born in the San Francisco Bay Area, straddling traditional Vietnamese food fused with California-fresh and light tastes. Recipes feature garden-fresh produce, bright flavors, and high-quality ingredients â local and organic when possible.",,,37.869049,-122.259734,Yes,No,Yes,< $10,Closed,10:30am-2:30pm,10:30am-2:30pm,10:30am-2:30pm,10:30am-2:30pm,10:30am-2:30pm,Closed,,
El Mesan de Violeta,Cafe,"Martin Luther King, Jr. Student Union",El Mesan de Violeta specializes in artisanal empanadas and offers South American inspired catering.,,,37.869177,-122.259804,Yes,No,Yes,< $10,Closed,12pm-3pm,12pm-3pm,12pm-3pm,12pm-3pm,12pm-3pm,Closed,,
1951 Coffee Company,Cafe,"Martin Luther King, Jr. Student Union","1951 Coffee Company, founded in 2015, is a non-profit specialty coffee organization that promotes the well-being of the refugee community in the United States by providing job training and employment to refugees, asylees, and special immigrant visa holders while educating the surrounding community about refugee life and issues. ",,,37.869177,-122.259804,Yes,No,Yes,< $10,10:30am-6pm,7am-7pm,7am-7pm,7am-7pm,7am-7pm,Closed,8:30am-4pm,,
Marugame Udon,Cafe,Berkeley Way West,"MARUGAME UDON dedicates to provide Japanese authentic made-to-order Udon noodles which are freshly kneaded, boiled and cooked right in front of you every day.",,,37.873244,-122.268243,Yes,No,No,$10-15,11am - 9pm,11am - 10pm,11am - 10pm,11am - 10pm,11am - 10pm,11am - 10pm,11am - 10pm,,
Noah's Bagels,Cafe,Berkeley Way West,"Begin your day with a smile by making Noah's New York Bagels at 1919 Shattuck Ave, Berkeley, CA your first stop. At Noah's, we believe that every bagel should be fresh-baked and that ingredients matter.",,,37.873696,-122.268294,Yes,No,No,< $10,5am - 5pm,5am - 5pm,5am - 5pm,5am - 5pm,5am - 5pm,6am-4pm,6am-3pm,,
Bbox Cafe,Cafe,Berkeley Way West,"Bbox is UCâ first mobile only cafe, serving third-wave coffee and local pastries super fast. Order ahead of time on mobile and we'll have your order waiting when you arrive.",,,37.873563,-122.267957,Yes,No,No,< $10,Closed,9am-3pm,9am-3pm,9am-3pm,9am-3pm,9am-3pm,Closed,,